CCSDS_OMM_VERS = 2.0
CREATION_DATE  = 
ORIGINATOR     = 

OBJECT_NAME    = STARLINK-36610
OBJECT_ID      = 2026-020W
CENTER_NAME    = EARTH
REF_FRAME      = TEME
TIME_SYSTEM    = UTC
MEAN_ELEMENT_THEORY = SGP/SGP4

EPOCH          = 2026-02-08T22:00:03.000096
MEAN_MOTION    = 15.84661939
ECCENTRICITY   = .00016402
INCLINATION    = 42.9994
RA_OF_ASC_NODE = 317.0168
ARG_OF_PERICENTER = 277.1217
MEAN_ANOMALY   = 140.1362

EPHEMERIS_TYPE = 0
CLASSIFICATION_TYPE = U
NORAD_CAT_ID   = 67637
ELEMENT_SET_NO = 999
REV_AT_EPOCH   = 276
BSTAR          = -.88954933E-2
MEAN_MOTION_DOT = -.1862885E-1
MEAN_MOTION_DDOT = 0

CCSDS_OMM_VERS = 2.0
CREATION_DATE  = 
ORIGINATOR     = 

OBJECT_NAME    = STARLINK-36599
OBJECT_ID      = 2026-020X
CENTER_NAME    = EARTH
REF_FRAME      = TEME
TIME_SYSTEM    = UTC
MEAN_ELEMENT_THEORY = SGP/SGP4

EPOCH          = 2026-02-08T22:00:03.000096
MEAN_MOTION    = 15.84857145
ECCENTRICITY   = .00015635
INCLINATION    = 42.9994
RA_OF_ASC_NODE = 317.0060
ARG_OF_PERICENTER = 265.5609
MEAN_ANOMALY   = 155.9374

EPHEMERIS_TYPE = 0
CLASSIFICATION_TYPE = U
NORAD_CAT_ID   = 67638
ELEMENT_SET_NO = 999
REV_AT_EPOCH   = 276
BSTAR          = -.87908231E-2
MEAN_MOTION_DOT = -.1859031E-1
MEAN_MOTION_DDOT = 0

CCSDS_OMM_VERS = 2.0
CREATION_DATE  = 
ORIGINATOR     = 

OBJECT_NAME    = STARLINK-36595
OBJECT_ID      = 2026-020Y
CENTER_NAME    = EARTH
REF_FRAME      = TEME
TIME_SYSTEM    = UTC
MEAN_ELEMENT_THEORY = SGP/SGP4

EPOCH          = 2026-02-08T22:00:03.000096
MEAN_MOTION    = 15.85044535
ECCENTRICITY   = .00017555
INCLINATION    = 42.9993
RA_OF_ASC_NODE = 316.9959
ARG_OF_PERICENTER = 265.0374
MEAN_ANOMALY   = 160.4446

EPHEMERIS_TYPE = 0
CLASSIFICATION_TYPE = U
NORAD_CAT_ID   = 67639
ELEMENT_SET_NO = 999
REV_AT_EPOCH   = 276
BSTAR          = -.86861058E-2
MEAN_MOTION_DOT = -.1854622E-1
MEAN_MOTION_DDOT = 0

CCSDS_OMM_VERS = 2.0
CREATION_DATE  = 
ORIGINATOR     = 

OBJECT_NAME    = STARLINK-36570
OBJECT_ID      = 2026-020Z
CENTER_NAME    = EARTH
REF_FRAME      = TEME
TIME_SYSTEM    = UTC
MEAN_ELEMENT_THEORY = SGP/SGP4

EPOCH          = 2026-02-08T22:00:03.000096
MEAN_MOTION    = 15.85178064
ECCENTRICITY   = .00017152
INCLINATION    = 42.9994
RA_OF_ASC_NODE = 316.9882
ARG_OF_PERICENTER = 264.8142
MEAN_ANOMALY   = 163.6340

EPHEMERIS_TYPE = 0
CLASSIFICATION_TYPE = U
NORAD_CAT_ID   = 67640
ELEMENT_SET_NO = 999
REV_AT_EPOCH   = 276
BSTAR          = -.86341659E-2
MEAN_MOTION_DOT = -.1855452E-1
MEAN_MOTION_DDOT = 0

CCSDS_OMM_VERS = 2.0
CREATION_DATE  = 
ORIGINATOR     = 

OBJECT_NAME    = STARLINK-36514
OBJECT_ID      = 2026-020AA
CENTER_NAME    = EARTH
REF_FRAME      = TEME
TIME_SYSTEM    = UTC
MEAN_ELEMENT_THEORY = SGP/SGP4

EPOCH          = 2026-02-08T22:00:03.000096
MEAN_MOTION    = 15.85577794
ECCENTRICITY   = .00015752
INCLINATION    = 42.9993
RA_OF_ASC_NODE = 316.9669
ARG_OF_PERICENTER = 266.0169
MEAN_ANOMALY   = 170.9187

EPHEMERIS_TYPE = 0
CLASSIFICATION_TYPE = U
NORAD_CAT_ID   = 67641
ELEMENT_SET_NO = 999
REV_AT_EPOCH   = 276
BSTAR          = -.84288973E-2
MEAN_MOTION_DOT = -.1848096E-1
MEAN_MOTION_DDOT = 0

CCSDS_OMM_VERS = 2.0
CREATION_DATE  = 
ORIGINATOR     = 

OBJECT_NAME    = STARLINK-36556
OBJECT_ID      = 2026-020AB
CENTER_NAME    = EARTH
REF_FRAME      = TEME
TIME_SYSTEM    = UTC
MEAN_ELEMENT_THEORY = SGP/SGP4

EPOCH          = 2026-02-08T22:00:03.000096
MEAN_MOTION    = 15.85636510
ECCENTRICITY   = .00018703
INCLINATION    = 42.9992
RA_OF_ASC_NODE = 316.9585
ARG_OF_PERICENTER = 256.7380
MEAN_ANOMALY   = 183.4277

EPHEMERIS_TYPE = 0
CLASSIFICATION_TYPE = U
NORAD_CAT_ID   = 67642
ELEMENT_SET_NO = 999
REV_AT_EPOCH   = 276
BSTAR          = -.80936968E-2
MEAN_MOTION_DOT = -.1750868E-1
MEAN_MOTION_DDOT = 0

CCSDS_OMM_VERS = 2.0
CREATION_DATE  = 
ORIGINATOR     = 

OBJECT_NAME    = STARLINK-36533
OBJECT_ID      = 2026-020AC
CENTER_NAME    = EARTH
REF_FRAME      = TEME
TIME_SYSTEM    = UTC
MEAN_ELEMENT_THEORY = SGP/SGP4

EPOCH          = 2026-02-08T22:00:03.000096
MEAN_MOTION    = 15.85371436
ECCENTRICITY   = .00016397
INCLINATION    = 42.9991
RA_OF_ASC_NODE = 316.9777
ARG_OF_PERICENTER = 271.9063
MEAN_ANOMALY   = 160.6341

EPHEMERIS_TYPE = 0
CLASSIFICATION_TYPE = U
NORAD_CAT_ID   = 67643
ELEMENT_SET_NO = 999
REV_AT_EPOCH   = 276
BSTAR          = -.85384135E-2
MEAN_MOTION_DOT = -.1852658E-1
MEAN_MOTION_DDOT = 0

CCSDS_OMM_VERS = 2.0
CREATION_DATE  = 
ORIGINATOR     = 

OBJECT_NAME    = STARLINK-36623
OBJECT_ID      = 2026-020AD
CENTER_NAME    = EARTH
REF_FRAME      = TEME
TIME_SYSTEM    = UTC
MEAN_ELEMENT_THEORY = SGP/SGP4

EPOCH          = 2026-02-08T22:00:03.000096
MEAN_MOTION    = 15.86110668
ECCENTRICITY   = .00016278
INCLINATION    = 42.9990
RA_OF_ASC_NODE = 316.9375
ARG_OF_PERICENTER = 268.3520
MEAN_ANOMALY   = 180.0512

EPHEMERIS_TYPE = 0
CLASSIFICATION_TYPE = U
NORAD_CAT_ID   = 67644
ELEMENT_SET_NO = 999
REV_AT_EPOCH   = 276
BSTAR          = -.81609154E-2
MEAN_MOTION_DOT = -.1798749E-1
MEAN_MOTION_DDOT = 0

CCSDS_OMM_VERS = 2.0
CREATION_DATE  = 
ORIGINATOR     = 

OBJECT_NAME    = STARLINK-36619
OBJECT_ID      = 2026-020AE
CENTER_NAME    = EARTH
REF_FRAME      = TEME
TIME_SYSTEM    = UTC
MEAN_ELEMENT_THEORY = SGP/SGP4

EPOCH          = 2026-02-08T22:00:03.000096
MEAN_MOTION    = 15.85932898
ECCENTRICITY   = .00016577
INCLINATION    = 42.9990
RA_OF_ASC_NODE = 316.9472
ARG_OF_PERICENTER = 267.5430
MEAN_ANOMALY   = 177.0332

EPHEMERIS_TYPE = 0
CLASSIFICATION_TYPE = U
NORAD_CAT_ID   = 67645
ELEMENT_SET_NO = 999
REV_AT_EPOCH   = 276
BSTAR          = -.82450797E-2
MEAN_MOTION_DOT = -.1801013E-1
MEAN_MOTION_DDOT = 0

CCSDS_OMM_VERS = 2.0
CREATION_DATE  = 
ORIGINATOR     = 

OBJECT_NAME    = ALSAT-3B
OBJECT_ID      = 2026-021A
CENTER_NAME    = EARTH
REF_FRAME      = TEME
TIME_SYSTEM    = UTC
MEAN_ELEMENT_THEORY = SGP/SGP4

EPOCH          = 2026-02-08T22:44:01.434912
MEAN_MOTION    = 15.23508168
ECCENTRICITY   = .00115946
INCLINATION    = 97.4720
RA_OF_ASC_NODE = 114.4068
ARG_OF_PERICENTER = 232.3575
MEAN_ANOMALY   = 127.6611

EPHEMERIS_TYPE = 0
CLASSIFICATION_TYPE = U
NORAD_CAT_ID   = 67646
ELEMENT_SET_NO = 999
REV_AT_EPOCH   = 134
BSTAR          = .30549951E-3
MEAN_MOTION_DOT = .7234E-4
MEAN_MOTION_DDOT = 0

CCSDS_OMM_VERS = 2.0
CREATION_DATE  = 
ORIGINATOR     = 

OBJECT_NAME    = CZ-2C R/B
OBJECT_ID      = 2026-021B
CENTER_NAME    = EARTH
REF_FRAME      = TEME
TIME_SYSTEM    = UTC
MEAN_ELEMENT_THEORY = SGP/SGP4

EPOCH          = 2026-02-08T22:47:18.659328
MEAN_MOTION    = 15.23289424
ECCENTRICITY   = .01540007
INCLINATION    = 97.6561
RA_OF_ASC_NODE = 114.8385
ARG_OF_PERICENTER = 111.0445
MEAN_ANOMALY   = 250.7339

EPHEMERIS_TYPE = 0
CLASSIFICATION_TYPE = U
NORAD_CAT_ID   = 67647
ELEMENT_SET_NO = 999
REV_AT_EPOCH   = 132
BSTAR          = .44454666E-3
MEAN_MOTION_DOT = .14666E-3
MEAN_MOTION_DDOT = 0

CCSDS_OMM_VERS = 2.0
CREATION_DATE  = 
ORIGINATOR     = 

OBJECT_NAME    = STARLINK-36719
OBJECT_ID      = 2026-022A
CENTER_NAME    = EARTH
REF_FRAME      = TEME
TIME_SYSTEM    = UTC
MEAN_ELEMENT_THEORY = SGP/SGP4

EPOCH          = 2026-02-08T22:00:03.000096
MEAN_MOTION    = 15.97672157
ECCENTRICITY   = .0001303
INCLINATION    = 97.2832
RA_OF_ASC_NODE = 72.3474
ARG_OF_PERICENTER = 80.7215
MEAN_ANOMALY   = 186.2514

EPHEMERIS_TYPE = 0
CLASSIFICATION_TYPE = U
NORAD_CAT_ID   = 67648
ELEMENT_SET_NO = 999
REV_AT_EPOCH   = 226
BSTAR          = -.34160243E-2
MEAN_MOTION_DOT = -.150961E-1
MEAN_MOTION_DDOT = .68477177E-3

