STARLINK-36610          
1 67637U 26020W   26039.91670139 -.01862885  00000+0 -88955-2 0  9991
2 67637  42.9994 317.0168 0001640 277.1217 140.1362 15.84661939  2766
STARLINK-36599          
1 67638U 26020X   26039.91670139 -.01859031  00000+0 -87908-2 0  9998
2 67638  42.9994 317.0060 0001563 265.5609 155.9374 15.84857145  2761
STARLINK-36595          
1 67639U 26020Y   26039.91670139 -.01854622  00000+0 -86861-2 0  9997
2 67639  42.9993 316.9959 0001755 265.0374 160.4446 15.85044535  2766
STARLINK-36570          
1 67640U 26020Z   26039.91670139 -.01855452  00000+0 -86342-2 0  9995
2 67640  42.9994 316.9882 0001715 264.8142 163.6340 15.85178064  2763
STARLINK-36514          
1 67641U 26020AA  26039.91670139 -.01848096  00000+0 -84289-2 0  9990
2 67641  42.9993 316.9669 0001575 266.0169 170.9187 15.85577794  2766
STARLINK-36556          
1 67642U 26020AB  26039.91670139 -.01750868  00000+0 -80937-2 0  9996
2 67642  42.9992 316.9585 0001870 256.7380 183.4277 15.85636510  2763
STARLINK-36533          
1 67643U 26020AC  26039.91670139 -.01852658  00000+0 -85384-2 0  9998
2 67643  42.9991 316.9777 0001639 271.9063 160.6341 15.85371436  2768
STARLINK-36623          
1 67644U 26020AD  26039.91670139 -.01798749  00000+0 -81609-2 0  9995
2 67644  42.9990 316.9375 0001627 268.3520 180.0512 15.86110668  2762
STARLINK-36619          
1 67645U 26020AE  26039.91670139 -.01801013  00000+0 -82451-2 0  9991
2 67645  42.9990 316.9472 0001657 267.5430 177.0332 15.85932898  2767
ALSAT-3B                
1 67646U 26021A   26039.94723883  .00007234  00000+0  30550-3 0  9995
2 67646  97.4720 114.4068 0011594 232.3575 127.6611 15.23508168  1342
CZ-2C R/B               
1 67647U 26021B   26039.94952152  .00014666  00000+0  44455-3 0  9995
2 67647  97.6561 114.8385 0154000 111.0445 250.7339 15.23289424  1327
STARLINK-36719          
1 67648U 26022A   26039.91670139 -.01509610  68477-3 -34160-2 0  9994
2 67648  97.2832  72.3474 0001303  80.7215 186.2514 15.97672157  2268
